0 SJ-11-03
1 37730U 11030A   13282.18828816  .00000331  00000-0  79328-4 0  5089
2 37730 098.1620 000.4947 0008066 203.2873 156.7971 14.59502970120468
0 SJ-11-03
1 37730U 11030A   13282.53107398  .00000331  00000-0  79448-4 0  5097
2 37730 098.1620 000.8320 0008088 202.2718 157.8132 14.59503261120519
0 SJ-11-03
1 37730U 11030A   13282.80530286  .00000327  00000-0  78645-4 0  5108
2 37730 098.1620 001.1017 0008099 201.2972 158.7892 14.59503431120555
0 SJ-11-03
1 37730U 11030A   13283.14808891  .00000341  00000-0  81432-4 0  5111
2 37730 098.1620 001.4389 0008096 200.2314 159.8576 14.59503818120602
0 SJ-11-03
1 37730U 11030A   13283.35376029  .00000337  00000-0  80629-4 0  5120
2 37730 098.1619 001.6412 0008120 199.6411 160.4480 14.59503956120634
0 SJ-11-03
1 37730U 11030A   13283.62798892  .00000338  00000-0  80841-4 0  5123
2 37730 098.1620 001.9112 0008120 198.5136 161.5771 14.59504198120676
0 SJ-11-03
1 37730U 11030A   13283.83366040  .00000325  00000-0  78126-4 0  5132
2 37730 098.1618 002.1134 0008150 197.9024 162.1880 14.59504210120709
0 SJ-11-03
1 37730U 11030A   13284.17644640  .00000340  00000-0  81342-4 0  5147
2 37730 098.1617 002.4505 0008150 196.8874 163.2072 14.59504654120756
0 SJ-11-03
1 37730U 11030A   13284.51923165  .00000337  00000-0  80617-4 0  5158
2 37730 098.1619 002.7878 0008226 195.5137 164.5816 14.59504932120801
0 SJ-11-03
1 37730U 11030A   13285.47903064  .00000365  00000-0  86493-4 0  5182
2 37730 098.1618 003.7318 0008252 192.4812 167.6192 14.59506054120948
0 SJ-11-03
1 37730U 11030A   13285.82181580  .00000370  00000-0  87631-4 0  5194
2 37730 098.1617 004.0690 0008289 191.1638 168.9381 14.59506407120997
0 SJ-11-03
1 37730U 11030A   13286.16460111  .00000396  00000-0  93024-4 0  5205
2 37730 098.1617 004.4062 0008299 190.0950 170.0105 14.59506966121045
0 SJ-11-03
1 37730U 11030A   13286.50738578  .00000400  00000-0  93994-4 0  5211
2 37730 098.1618 004.7434 0008357 188.9194 171.1861 14.59507324121098
0 SJ-11-03
1 37730U 11030A   13286.85017075  .00000400  00000-0  94010-4 0  5222
2 37730 098.1618 005.0807 0008385 187.8105 172.2965 14.59507644121145
0 SJ-11-03
1 37730U 11030A   13287.19295591  .00000426  00000-0  99314-4 0  5232
2 37730 098.1617 005.4179 0008368 186.8096 173.3010 14.59508202121198
0 SJ-11-03
1 37730U 11030A   13287.46718329  .00000433  00000-0  10089-3 0  5241
2 37730 098.1617 005.6878 0008399 186.0089 174.1014 14.59508555121233
0 SJ-11-03
1 37730U 11030A   13287.80996800  .00000439  00000-0  10219-3 0  5253
2 37730 098.1617 006.0249 0008411 184.9307 175.1811 14.59508946121280
0 SJ-11-03
1 37730U 11030A   13288.15275295  .00000450  00000-0  10455-3 0  5266
2 37730 098.1616 006.3621 0008435 183.7985 176.3166 14.59509372121337
0 SJ-11-03
1 37730U 11030A   13288.49553731  .00000452  00000-0  10494-3 0  5273
2 37730 098.1615 006.6993 0008470 182.7275 177.3882 14.59509729121388
0 SJ-11-03
1 37730U 11030A   13288.83832179  .00000453  00000-0  10505-3 0  5282
2 37730 098.1614 007.0365 0008488 181.6294 178.4879 14.59510079121437
0 SJ-11-03
1 37730U 11030A   13289.18110651  .00000466  00000-0  10785-3 0  5290
2 37730 098.1613 007.3736 0008501 180.5742 179.5472 14.59510560121484
0 SJ-11-03
1 37730U 11030A   13289.52389040  .00000469  00000-0  10837-3 0  5301
2 37730 098.1615 007.7110 0008558 179.3812 180.7402 14.59510939121535
0 SJ-11-03
1 37730U 11030A   13289.79811768  .00000464  00000-0  10748-3 0  5314
2 37730 098.1614 007.9806 0008594 178.3469 181.7751 14.59511174121579
0 SJ-11-03
1 37730U 11030A   13290.20945908  .00000475  00000-0  10963-3 0  5328
2 37730 098.1615 008.3853 0008632 177.0237 183.1030 14.59511684121638
0 SJ-11-03
1 37730U 11030A   13290.34657245  .00000478  00000-0  11036-3 0  5333
2 37730 098.1615 008.5202 0008647 176.5735 183.5533 14.59511881121654
0 SJ-11-03
1 37730U 11030A   13290.68935622  .00000483  00000-0  11139-3 0  5349
2 37730 098.1615 008.8575 0008707 175.3729 184.7557 14.59512319121709
0 SJ-11-03
1 37730U 11030A   13290.82646974  .00000481  00000-0  11091-3 0  5350
2 37730 098.1615 008.9923 0008718 174.9370 185.1920 14.59512445121727
0 SJ-11-03
1 37730U 11030A   13291.16925379  .00000496  00000-0  11407-3 0  5365
2 37730 098.1617 009.3299 0008717 173.9959 186.1364 14.59512949121778
0 SJ-11-03
1 37730U 11030A   13291.51203730  .00000489  00000-0  11260-3 0  5374
2 37730 098.1619 009.6672 0008730 172.8715 187.2610 14.59513259121828
0 SJ-11-03
1 37730U 11030A   13291.85482098  .00000479  00000-0  11047-3 0  5380
2 37730 098.1618 010.0040 0008761 171.7423 188.3912 14.59513520121873
0 SJ-11-03
1 37730U 11030A   13292.19760488  .00000492  00000-0  11335-3 0  5396
2 37730 098.1619 010.3415 0008765 170.8806 189.2573 14.59514044121923
0 SJ-11-03
1 37730U 11030A   13292.47183132  .00000497  00000-0  11430-3 0  5405
2 37730 098.1619 010.6114 0008809 170.0289 190.1097 14.59514415121966
0 SJ-11-03
1 37730U 11030A   13292.81461445  .00000500  00000-0  11501-3 0  5414
2 37730 098.1618 010.9485 0008835 168.8311 191.3081 14.59514828122010
0 SJ-11-03
1 37730U 11030A   13293.15739784  .00000522  00000-0  11953-3 0  5422
2 37730 098.1619 011.2859 0008821 167.8814 192.2614 14.59515431122060
0 SJ-11-03
1 37730U 11030A   13293.50018071  .00000523  00000-0  11977-3 0  5438
2 37730 098.1622 011.6233 0008871 166.8580 193.2854 14.59515835122119
0 SJ-11-03
1 37730U 11030A   13293.84296368  .00000512  00000-0  11755-3 0  5445
2 37730 098.1621 011.9604 0008923 165.7620 194.3815 14.59516092122164
0 SJ-11-03
1 37730U 11030A   13294.18574716  .00000526  00000-0  12036-3 0  5458
2 37730 098.1619 012.2977 0008931 164.9026 195.2464 14.59516639122211
0 SJ-11-03
1 37730U 11030A   13294.52852961  .00000535  00000-0  12231-3 0  5465
2 37730 098.1620 012.6349 0008923 163.7996 196.3496 14.59517140122264
0 SJ-11-03
1 37730U 11030A   13294.80275570  .00000534  00000-0  12213-3 0  5471
2 37730 098.1619 012.9046 0008975 163.0248 197.1254 14.59517459122308
0 SJ-11-03
1 37730U 11030A   13295.14553854  .00000548  00000-0  12504-3 0  5482
2 37730 098.1619 013.2418 0008989 162.0699 198.0833 14.59517983122359
0 SJ-11-03
1 37730U 11030A   13295.48832076  .00000552  00000-0  12590-3 0  5496
2 37730 098.1620 013.5791 0009032 161.0953 199.0585 14.59518443122403
0 SJ-11-03
1 37730U 11030A   13295.83110318  .00000543  00000-0  12400-3 0  5505
2 37730 098.1619 013.9163 0009085 159.9978 200.1564 14.59518725122458
0 SJ-11-03
1 37730U 11030A   13296.17388612  .00000555  00000-0  12656-3 0  5514
2 37730 098.1618 014.2534 0009078 158.8770 201.2822 14.59519248122509
